start=new Date('2021-11-18T00:00:00.000Z').valueOf();
sats=[{"ECCENTRICITY":"0.00019190","ELEMENT_SET_NO":"999","TLE_LINE1":"1 46350U 20062AB  21321.73864184  .00000655  00000-0  62840-4 0  9998","MEAN_ELEMENT_THEORY":"SGP4","ARG_OF_PERICENTER":"72.1899","MEAN_MOTION":"15.06405767","CENTER_NAME":"EARTH","MEAN_ANOMALY":"287.9299","MEAN_MOTION_DOT":"0.00000655","REV_AT_EPOCH":"6723","EPOCH":"2021-11-17T17:43:38.654976","COUNTRY_CODE":"US","SITE":"AFETR","LAUNCH_DATE":"2020-09-03","PERIOD":"95.592","SEMIMAJOR_AXIS":"6925.331","OBJECT_ID":"2020-062AB","REF_FRAME":"TEME","EPHEMERIS_TYPE":"0","MEAN_MOTION_DDOT":"0.0000000000000","PERIAPSIS":"545.867","OBJECT_TYPE":"PAYLOAD","APOAPSIS":"548.525","BSTAR":"0.00006284000000","CLASSIFICATION_TYPE":"U","GP_ID":"189977319","INCLINATION":"53.0534","FILE":"3217982","OBJECT_NAME":"STARLINK-1617","RA_OF_ASC_NODE":"237.8605","RCS_SIZE":"LARGE","TLE_LINE2":"2 46350  53.0534 237.8605 0001919  72.1899 287.9299 15.06405767 67232","TIME_SYSTEM":"UTC","NORAD_CAT_ID":"46350","DECAY_DATE":null},{"EPOCH":"2021-11-17T17:51:36.404640","MEAN_MOTION_DOT":"0.00001330","REV_AT_EPOCH":"6751","CENTER_NAME":"EARTH","MEAN_ANOMALY":"288.0281","MEAN_MOTION":"15.06398385","ARG_OF_PERICENTER":"72.0911","MEAN_ELEMENT_THEORY":"SGP4","ECCENTRICITY":"0.00018600","TLE_LINE1":"1 46351U 20062AC  21321.74417135  .00001330  00000-0  10815-3 0  9995","ELEMENT_SET_NO":"999","MEAN_MOTION_DDOT":"0.0000000000000","PERIAPSIS":"545.930","EPHEMERIS_TYPE":"0","REF_FRAME":"TEME","OBJECT_ID":"2020-062AC","SITE":"AFETR","COUNTRY_CODE":"US","PERIOD":"95.592","LAUNCH_DATE":"2020-09-03","SEMIMAJOR_AXIS":"6925.354","GP_ID":"189977572","INCLINATION":"53.0534","CLASSIFICATION_TYPE":"U","APOAPSIS":"548.507","BSTAR":"0.00010815000000","OBJECT_TYPE":"PAYLOAD","DECAY_DATE":null,"TIME_SYSTEM":"UTC","NORAD_CAT_ID":"46351","RCS_SIZE":"LARGE","TLE_LINE2":"2 46351  53.0534 217.8451 0001860  72.0911 288.0281 15.06398385 67510","OBJECT_NAME":"STARLINK-1646","RA_OF_ASC_NODE":"217.8451","FILE":"3217982"},{"RA_OF_ASC_NODE":"217.3267","OBJECT_NAME":"STARLINK-1653","TLE_LINE2":"2 46352  53.0542 217.3267 0001981  72.9924 287.1282 15.06405038 67534","RCS_SIZE":"LARGE","FILE":"3217982","DECAY_DATE":null,"NORAD_CAT_ID":"46352","TIME_SYSTEM":"UTC","OBJECT_TYPE":"PAYLOAD","CLASSIFICATION_TYPE":"U","GP_ID":"189975820","INCLINATION":"53.0542","BSTAR":"0.00003047100000","APOAPSIS":"548.570","LAUNCH_DATE":"2020-09-03","PERIOD":"95.592","SEMIMAJOR_AXIS":"6925.333","SITE":"AFETR","COUNTRY_CODE":"US","EPHEMERIS_TYPE":"0","PERIAPSIS":"545.826","MEAN_MOTION_DDOT":"0.0000000000000","OBJECT_ID":"2020-062AD","REF_FRAME":"TEME","ARG_OF_PERICENTER":"72.9924","MEAN_MOTION":"15.06405038","TLE_LINE1":"1 46352U 20062AD  21321.85843682  .00000172  00000-0  30471-4 0  9992","ELEMENT_SET_NO":"999","ECCENTRICITY":"0.00019810","MEAN_ELEMENT_THEORY":"SGP4","MEAN_MOTION_DOT":"0.00000172","REV_AT_EPOCH":"6753","EPOCH":"2021-11-17T20:36:08.941248","MEAN_ANOMALY":"287.1282","CENTER_NAME":"EARTH"},{"APOAPSIS":"548.447","BSTAR":"0.00004411300000","GP_ID":"189945987","INCLINATION":"53.0540","CLASSIFICATION_TYPE":"U","OBJECT_TYPE":"PAYLOAD","TIME_SYSTEM":"UTC","NORAD_CAT_ID":"46353","DECAY_DATE":null,"FILE":"3217692","RCS_SIZE":"LARGE","TLE_LINE2":"2 46353  53.0540 240.0243 0001787  75.1911 284.9275 15.06401273 67157","OBJECT_NAME":"STARLINK-1656","RA_OF_ASC_NODE":"240.0243","CENTER_NAME":"EARTH","MEAN_ANOMALY":"284.9275","EPOCH":"2021-11-17T06:13:38.778240","REV_AT_EPOCH":"6715","MEAN_MOTION_DOT":"0.00000376","MEAN_ELEMENT_THEORY":"SGP4","ECCENTRICITY":"0.00017870","ELEMENT_SET_NO":"999","TLE_LINE1":"1 46353U 20062AE  21321.25947660  .00000376  00000-0  44113-4 0  9992","MEAN_MOTION":"15.06401273","ARG_OF_PERICENTER":"75.1911","REF_FRAME":"TEME","OBJECT_ID":"2020-062AE","MEAN_MOTION_DDOT":"0.0000000000000","PERIAPSIS":"545.972","EPHEMERIS_TYPE":"0","SITE":"AFETR","COUNTRY_CODE":"US","LAUNCH_DATE":"2020-09-03","PERIOD":"95.592","SEMIMAJOR_AXIS":"6925.345"},{"OBJECT_TYPE":"PAYLOAD","BSTAR":"0.00016313000000","APOAPSIS":"548.303","GP_ID":"189976819","INCLINATION":"53.0542","CLASSIFICATION_TYPE":"U","FILE":"3217982","TLE_LINE2":"2 46354  53.0542 237.6826 0001594  73.2694 286.8469 15.06404631 67238","RCS_SIZE":"LARGE","OBJECT_NAME":"STARLINK-1657","RA_OF_ASC_NODE":"237.6826","NORAD_CAT_ID":"46354","TIME_SYSTEM":"UTC","DECAY_DATE":null,"MEAN_ELEMENT_THEORY":"SGP4","ELEMENT_SET_NO":"999","TLE_LINE1":"1 46354U 20062AF  21321.77918654  .00002149  00000-0  16313-3 0  9991","ECCENTRICITY":"0.00015940","MEAN_MOTION":"15.06404631","ARG_OF_PERICENTER":"73.2694","MEAN_ANOMALY":"286.8469","CENTER_NAME":"EARTH","EPOCH":"2021-11-17T18:42:01.717056","MEAN_MOTION_DOT":"0.00002149","REV_AT_EPOCH":"6723","LAUNCH_DATE":"2020-09-03","SEMIMAJOR_AXIS":"6925.334","PERIOD":"95.592","COUNTRY_CODE":"US","SITE":"AFETR","REF_FRAME":"TEME","OBJECT_ID":"2020-062AF","PERIAPSIS":"546.095","MEAN_MOTION_DDOT":"0.0000000000000","EPHEMERIS_TYPE":"0"},{"RA_OF_ASC_NODE":"237.5057","OBJECT_NAME":"STARLINK-1661","RCS_SIZE":"LARGE","TLE_LINE2":"2 46355  53.0541 237.5057 0002035  70.4700 289.6508 15.06401773 67241","FILE":"3217982","DECAY_DATE":null,"TIME_SYSTEM":"UTC","NORAD_CAT_ID":"46355","OBJECT_TYPE":"PAYLOAD","CLASSIFICATION_TYPE":"U","GP_ID":"189977072","INCLINATION":"53.0541","APOAPSIS":"548.617","BSTAR":"0.00007853200000","COUNTRY_CODE":"US","SITE":"AFETR","LAUNCH_DATE":"2020-09-03","PERIOD":"95.592","SEMIMAJOR_AXIS":"6925.343","EPHEMERIS_TYPE":"0","MEAN_MOTION_DDOT":"0.0000000000000","PERIAPSIS":"545.799","OBJECT_ID":"2020-062AG","REF_FRAME":"TEME","ARG_OF_PERICENTER":"70.4700","MEAN_MOTION":"15.06401773","ECCENTRICITY":"0.00020350","ELEMENT_SET_NO":"999","TLE_LINE1":"1 46355U 20062AG  21321.81973753  .00000888  00000-0  78532-4 0  9998","MEAN_ELEMENT_THEORY":"SGP4","REV_AT_EPOCH":"6724","MEAN_MOTION_DOT":"0.00000888","EPOCH":"2021-11-17T19:40:25.322592","CENTER_NAME":"EARTH","MEAN_ANOMALY":"289.6508"},{"CENTER_NAME":"EARTH","MEAN_ANOMALY":"287.7814","REV_AT_EPOCH":"6719","MEAN_MOTION_DOT":"0.00000092","EPOCH":"2021-11-17T11:58:39.052704","ECCENTRICITY":"0.00018680","ELEMENT_SET_NO":"999","TLE_LINE1":"1 46356U 20062AH  21321.49906311  .00000092  00000-0  25080-4 0  9996","MEAN_ELEMENT_THEORY":"SGP4","ARG_OF_PERICENTER":"72.3378","MEAN_MOTION":"15.06399862","OBJECT_ID":"2020-062AH","REF_FRAME":"TEME","EPHEMERIS_TYPE":"0","MEAN_MOTION_DDOT":"0.0000000000000","PERIAPSIS":"545.920","COUNTRY_CODE":"US","SITE":"AFETR","SEMIMAJOR_AXIS":"6925.349","LAUNCH_DATE":"2020-09-03","PERIOD":"95.592","APOAPSIS":"548.508","BSTAR":"0.00002508000000","CLASSIFICATION_TYPE":"U","GP_ID":"189976321","INCLINATION":"53.0535","OBJECT_TYPE":"PAYLOAD","TIME_SYSTEM":"UTC","NORAD_CAT_ID":"46356","DECAY_DATE":null,"FILE":"3217982","RA_OF_ASC_NODE":"238.9550","OBJECT_NAME":"STARLINK-1665","RCS_SIZE":"LARGE","TLE_LINE2":"2 46356  53.0535 238.9550 0001868  72.3378 287.7814 15.06399862 67191"},{"MEAN_ELEMENT_THEORY":"SGP4","ELEMENT_SET_NO":"999","TLE_LINE1":"1 46357U 20062AJ  21321.69625669 -.00000030  00000-0  16893-4 0  9998","ECCENTRICITY":"0.00016350","MEAN_MOTION":"15.06403653","ARG_OF_PERICENTER":"68.8254","MEAN_ANOMALY":"291.2909","CENTER_NAME":"EARTH","EPOCH":"2021-11-17T16:42:36.578016","REV_AT_EPOCH":"6750","MEAN_MOTION_DOT":"-0.00000030","LAUNCH_DATE":"2020-09-03","SEMIMAJOR_AXIS":"6925.337","PERIOD":"95.592","COUNTRY_CODE":"US","SITE":"AFETR","REF_FRAME":"TEME","OBJECT_ID":"2020-062AJ","PERIAPSIS":"546.070","MEAN_MOTION_DDOT":"0.0000000000000","EPHEMERIS_TYPE":"0","OBJECT_TYPE":"PAYLOAD","BSTAR":"0.00001689300000","APOAPSIS":"548.335","GP_ID":"189976571","INCLINATION":"53.0549","CLASSIFICATION_TYPE":"U","FILE":"3217982","TLE_LINE2":"2 46357  53.0549 218.0716 0001635  68.8254 291.2909 15.06403653 67509","RCS_SIZE":"LARGE","RA_OF_ASC_NODE":"218.0716","OBJECT_NAME":"STARLINK-1666","NORAD_CAT_ID":"46357","TIME_SYSTEM":"UTC","DECAY_DATE":null},{"APOAPSIS":"548.519","BSTAR":"0.00005335700000","GP_ID":"189977320","INCLINATION":"53.0531","CLASSIFICATION_TYPE":"U","OBJECT_TYPE":"PAYLOAD","TIME_SYSTEM":"UTC","NORAD_CAT_ID":"46358","DECAY_DATE":null,"FILE":"3217982","RCS_SIZE":"LARGE","TLE_LINE2":"2 46358  53.0531 237.5555 0001877  69.1719 290.9471 15.06398146 67247","OBJECT_NAME":"STARLINK-1690","RA_OF_ASC_NODE":"237.5555","CENTER_NAME":"EARTH","MEAN_ANOMALY":"290.9471","EPOCH":"2021-11-17T19:24:29.864736","REV_AT_EPOCH":"6724","MEAN_MOTION_DOT":"0.00000513","MEAN_ELEMENT_THEORY":"SGP4","ECCENTRICITY":"0.00018770","TLE_LINE1":"1 46358U 20062AK  21321.80867899  .00000513  00000-0  53357-4 0  9996","ELEMENT_SET_NO":"999","MEAN_MOTION":"15.06398146","ARG_OF_PERICENTER":"69.1719","REF_FRAME":"TEME","OBJECT_ID":"2020-062AK","MEAN_MOTION_DDOT":"0.0000000000000","PERIAPSIS":"545.919","EPHEMERIS_TYPE":"0","SITE":"AFETR","COUNTRY_CODE":"US","PERIOD":"95.592","LAUNCH_DATE":"2020-09-03","SEMIMAJOR_AXIS":"6925.354"},{"FILE":"3217982","OBJECT_NAME":"STARLINK-1707","RA_OF_ASC_NODE":"192.0539","TLE_LINE2":"2 46359  53.0540 192.0539 0001781  71.2789 288.8393 15.06397953 67884","RCS_SIZE":"LARGE","NORAD_CAT_ID":"46359","TIME_SYSTEM":"UTC","DECAY_DATE":null,"OBJECT_TYPE":"PAYLOAD","BSTAR":"0.00009638500000","APOAPSIS":"548.453","CLASSIFICATION_TYPE":"U","GP_ID":"189977573","INCLINATION":"53.0540","LAUNCH_DATE":"2020-09-03","PERIOD":"95.592","SEMIMAJOR_AXIS":"6925.355","SITE":"AFETR","COUNTRY_CODE":"US","OBJECT_ID":"2020-062AL","REF_FRAME":"TEME","EPHEMERIS_TYPE":"0","PERIAPSIS":"545.986","MEAN_MOTION_DDOT":"0.0000000000000","TLE_LINE1":"1 46359U 20062AL  21321.92155961  .00001154  00000-0  96385-4 0  9990","ELEMENT_SET_NO":"999","ECCENTRICITY":"0.00017810","MEAN_ELEMENT_THEORY":"SGP4","ARG_OF_PERICENTER":"71.2789","MEAN_MOTION":"15.06397953","MEAN_ANOMALY":"288.8393","CENTER_NAME":"EARTH","REV_AT_EPOCH":"6788","MEAN_MOTION_DOT":"0.00001154","EPOCH":"2021-11-17T22:07:02.750304"}];
